2026-027B               
1 67747U 26027B   26066.59208826  .00013031  00000+0  64718-3 0  9994
2 67747  97.4897 195.6292 0010145 204.2943 155.7813 15.17760864  3543
2026-027C               
1 67748U 26027C   26066.59068244  .00008434  00000+0  42006-3 0  9990
2 67748  97.4910 195.6346 0010493 206.6794 153.3901 15.17780008  3540
2026-027D               
1 67749U 26027D   26066.58727378  .00014895  00000+0  73169-3 0  9992
2 67749  97.4904 195.6379 0010149 212.0474 148.0143 15.18113643  3493
2026-027E               
1 67750U 26027E   26066.58741306  .00012856  00000+0  63311-3 0  9994
2 67750  97.4914 195.6410 0009380 212.8209 147.2443 15.18067517  3549
2026-027F               
1 67751U 26027F   26066.38728853 -.00001198  00000+0 -55058-4 0  9994
2 67751  97.4917 195.4495 0010584 214.0634 145.9922 15.18306233  3513
2026-027G               
1 67752U 26027G   26063.55439154  .00012661  00000+0  66333-3 0  9996
2 67752  97.4863 192.6273 0009268 274.5857  85.4317 15.15895723  3084
JIELONG-3 R/B           
1 67753U 26027H   26066.60225744  .00548555  23733-5  76304-3 0  9993
2 67753  97.5131 197.4563 0221019 252.5127 105.1874 15.73630514  3655
JIELONG-3 DEB           
1 67754U 26027J   26066.61004674  .03588568  24496-5  13464-2 0  9997
2 67754  97.4986 197.9038 0113672 253.9040 104.9704 16.10327193  3623
2026-028A               
1 67756U 26028A   26064.32694001  .00000004  00000+0  00000+0 0  9994
2 67756   0.4806 289.7424 0042016 229.1663 201.2342  0.99523939   215
JAM-E JAM 1             
1 67757U 26028B   26065.58849579  .00000151  00000+0  00000+0 0  9999
2 67757   0.5003 285.7022 0004514 129.9316 355.2368  1.00260970    99
KUIPER-00159            
1 67764U 26030A   26066.61495302  .00044004  00000+0  12524-2 0  9998
2 67764  51.8841 229.1721 0004924  39.0747 321.0594 15.35676200  4779
KUIPER-00160            
1 67765U 26030B   26066.61639263  .00029027  00000+0  83623-3 0  9992
2 67765  51.8809 229.1719 0005131  49.4993 310.6440 15.35497511  4770
